CCSDS_OMM_VERS = 2.0
CREATION_DATE  = 
ORIGINATOR     = 

OBJECT_NAME    = SITRO-TD-3
OBJECT_ID      = 2025-313Y
CENTER_NAME    = EARTH
REF_FRAME      = TEME
TIME_SYSTEM    = UTC
MEAN_ELEMENT_THEORY = SGP/SGP4

EPOCH          = 2026-01-24T06:30:28.229184
MEAN_MOTION    = 15.20449637
ECCENTRICITY   = .00162119
INCLINATION    = 97.4097
RA_OF_ASC_NODE = 101.2800
ARG_OF_PERICENTER = 145.5109
MEAN_ANOMALY   = 214.7182

EPHEMERIS_TYPE = 0
CLASSIFICATION_TYPE = U
NORAD_CAT_ID   = 67270
ELEMENT_SET_NO = 999
REV_AT_EPOCH   = 406
BSTAR          = .80128824E-3
MEAN_MOTION_DOT = .17505E-3
MEAN_MOTION_DDOT = 0

CCSDS_OMM_VERS = 2.0
CREATION_DATE  = 
ORIGINATOR     = 

OBJECT_NAME    = 2025-313Z
OBJECT_ID      = 2025-313Z
CENTER_NAME    = EARTH
REF_FRAME      = TEME
TIME_SYSTEM    = UTC
MEAN_ELEMENT_THEORY = SGP/SGP4

EPOCH          = 2026-01-24T06:33:24.938784
MEAN_MOTION    = 15.20153478
ECCENTRICITY   = .00163701
INCLINATION    = 97.4092
RA_OF_ASC_NODE = 101.2672
ARG_OF_PERICENTER = 141.7541
MEAN_ANOMALY   = 218.4859

EPHEMERIS_TYPE = 0
CLASSIFICATION_TYPE = U
NORAD_CAT_ID   = 67271
ELEMENT_SET_NO = 999
REV_AT_EPOCH   = 406
BSTAR          = .3995269E-3
MEAN_MOTION_DOT = .8609E-4
MEAN_MOTION_DDOT = 0

CCSDS_OMM_VERS = 2.0
CREATION_DATE  = 
ORIGINATOR     = 

OBJECT_NAME    = 2025-313AA
OBJECT_ID      = 2025-313AA
CENTER_NAME    = EARTH
REF_FRAME      = TEME
TIME_SYSTEM    = UTC
MEAN_ELEMENT_THEORY = SGP/SGP4

EPOCH          = 2026-01-24T04:51:42.033312
MEAN_MOTION    = 15.20670968
ECCENTRICITY   = .00159178
INCLINATION    = 97.4096
RA_OF_ASC_NODE = 101.2077
ARG_OF_PERICENTER = 146.0997
MEAN_ANOMALY   = 214.1260

EPHEMERIS_TYPE = 0
CLASSIFICATION_TYPE = U
NORAD_CAT_ID   = 67272
ELEMENT_SET_NO = 999
REV_AT_EPOCH   = 405
BSTAR          = .87541951E-3
MEAN_MOTION_DOT = .19256E-3
MEAN_MOTION_DDOT = 0

CCSDS_OMM_VERS = 2.0
CREATION_DATE  = 
ORIGINATOR     = 

OBJECT_NAME    = 2025-313AB
OBJECT_ID      = 2025-313AB
CENTER_NAME    = EARTH
REF_FRAME      = TEME
TIME_SYSTEM    = UTC
MEAN_ELEMENT_THEORY = SGP/SGP4

EPOCH          = 2026-01-24T06:33:30.417408
MEAN_MOTION    = 15.20099304
ECCENTRICITY   = .00153474
INCLINATION    = 97.4110
RA_OF_ASC_NODE = 101.2724
ARG_OF_PERICENTER = 149.8402
MEAN_ANOMALY   = 210.3720

EPHEMERIS_TYPE = 0
CLASSIFICATION_TYPE = U
NORAD_CAT_ID   = 67273
ELEMENT_SET_NO = 999
REV_AT_EPOCH   = 406
BSTAR          = .29095564E-3
MEAN_MOTION_DOT = .6236E-4
MEAN_MOTION_DDOT = 0

CCSDS_OMM_VERS = 2.0
CREATION_DATE  = 
ORIGINATOR     = 

OBJECT_NAME    = 2025-313AC
OBJECT_ID      = 2025-313AC
CENTER_NAME    = EARTH
REF_FRAME      = TEME
TIME_SYSTEM    = UTC
MEAN_ELEMENT_THEORY = SGP/SGP4

EPOCH          = 2026-01-24T06:30:04.913280
MEAN_MOTION    = 15.20364527
ECCENTRICITY   = .00160311
INCLINATION    = 97.4086
RA_OF_ASC_NODE = 101.2757
ARG_OF_PERICENTER = 144.9270
MEAN_ANOMALY   = 215.3024

EPHEMERIS_TYPE = 0
CLASSIFICATION_TYPE = U
NORAD_CAT_ID   = 67274
ELEMENT_SET_NO = 999
REV_AT_EPOCH   = 406
BSTAR          = .58597808E-3
MEAN_MOTION_DOT = .12742E-3
MEAN_MOTION_DDOT = 0

CCSDS_OMM_VERS = 2.0
CREATION_DATE  = 
ORIGINATOR     = 

OBJECT_NAME    = 2025-313AD
OBJECT_ID      = 2025-313AD
CENTER_NAME    = EARTH
REF_FRAME      = TEME
TIME_SYSTEM    = UTC
MEAN_ELEMENT_THEORY = SGP/SGP4

EPOCH          = 2026-01-24T06:28:36.970176
MEAN_MOTION    = 15.20435887
ECCENTRICITY   = .0015201
INCLINATION    = 97.4060
RA_OF_ASC_NODE = 101.2686
ARG_OF_PERICENTER = 147.5664
MEAN_ANOMALY   = 212.6509

EPHEMERIS_TYPE = 0
CLASSIFICATION_TYPE = U
NORAD_CAT_ID   = 67275
ELEMENT_SET_NO = 999
REV_AT_EPOCH   = 406
BSTAR          = .60584762E-3
MEAN_MOTION_DOT = .132E-3
MEAN_MOTION_DDOT = 0

CCSDS_OMM_VERS = 2.0
CREATION_DATE  = 
ORIGINATOR     = 

OBJECT_NAME    = 2025-313AE
OBJECT_ID      = 2025-313AE
CENTER_NAME    = EARTH
REF_FRAME      = TEME
TIME_SYSTEM    = UTC
MEAN_ELEMENT_THEORY = SGP/SGP4

EPOCH          = 2026-01-24T04:53:49.099200
MEAN_MOTION    = 15.20428970
ECCENTRICITY   = .00151833
INCLINATION    = 97.4065
RA_OF_ASC_NODE = 101.2049
ARG_OF_PERICENTER = 147.9524
MEAN_ANOMALY   = 212.2638

EPHEMERIS_TYPE = 0
CLASSIFICATION_TYPE = U
NORAD_CAT_ID   = 67276
ELEMENT_SET_NO = 999
REV_AT_EPOCH   = 405
BSTAR          = .58876528E-3
MEAN_MOTION_DOT = .12822E-3
MEAN_MOTION_DDOT = 0

CCSDS_OMM_VERS = 2.0
CREATION_DATE  = 
ORIGINATOR     = 

OBJECT_NAME    = 2025-313AF
OBJECT_ID      = 2025-313AF
CENTER_NAME    = EARTH
REF_FRAME      = TEME
TIME_SYSTEM    = UTC
MEAN_ELEMENT_THEORY = SGP/SGP4

EPOCH          = 2026-01-24T06:29:15.886464
MEAN_MOTION    = 15.20379662
ECCENTRICITY   = .00151772
INCLINATION    = 97.4067
RA_OF_ASC_NODE = 101.2701
ARG_OF_PERICENTER = 147.6496
MEAN_ANOMALY   = 212.5673

EPHEMERIS_TYPE = 0
CLASSIFICATION_TYPE = U
NORAD_CAT_ID   = 67277
ELEMENT_SET_NO = 999
REV_AT_EPOCH   = 406
BSTAR          = .56066083E-3
MEAN_MOTION_DOT = .12188E-3
MEAN_MOTION_DDOT = 0

CCSDS_OMM_VERS = 2.0
CREATION_DATE  = 
ORIGINATOR     = 

OBJECT_NAME    = 2025-313AG
OBJECT_ID      = 2025-313AG
CENTER_NAME    = EARTH
REF_FRAME      = TEME
TIME_SYSTEM    = UTC
MEAN_ELEMENT_THEORY = SGP/SGP4

EPOCH          = 2026-01-24T06:28:48.329184
MEAN_MOTION    = 15.20433860
ECCENTRICITY   = .00150153
INCLINATION    = 97.4071
RA_OF_ASC_NODE = 101.2713
ARG_OF_PERICENTER = 147.8992
MEAN_ANOMALY   = 212.3161

EPHEMERIS_TYPE = 0
CLASSIFICATION_TYPE = U
NORAD_CAT_ID   = 67278
ELEMENT_SET_NO = 999
REV_AT_EPOCH   = 407
BSTAR          = .51917657E-3
MEAN_MOTION_DOT = .11297E-3
MEAN_MOTION_DDOT = 0

CCSDS_OMM_VERS = 2.0
CREATION_DATE  = 
ORIGINATOR     = 

OBJECT_NAME    = GALAPAGOS-UTE-SWSU
OBJECT_ID      = 2025-313AH
CENTER_NAME    = EARTH
REF_FRAME      = TEME
TIME_SYSTEM    = UTC
MEAN_ELEMENT_THEORY = SGP/SGP4

EPOCH          = 2026-01-24T06:27:14.752800
MEAN_MOTION    = 15.20500036
ECCENTRICITY   = .00156657
INCLINATION    = 97.4080
RA_OF_ASC_NODE = 101.2765
ARG_OF_PERICENTER = 144.5754
MEAN_ANOMALY   = 215.6525

EPHEMERIS_TYPE = 0
CLASSIFICATION_TYPE = U
NORAD_CAT_ID   = 67279
ELEMENT_SET_NO = 999
REV_AT_EPOCH   = 406
BSTAR          = .61841552E-3
MEAN_MOTION_DOT = .13503E-3
MEAN_MOTION_DDOT = 0

CCSDS_OMM_VERS = 2.0
CREATION_DATE  = 
ORIGINATOR     = 

OBJECT_NAME    = 2025-313AJ
OBJECT_ID      = 2025-313AJ
CENTER_NAME    = EARTH
REF_FRAME      = TEME
TIME_SYSTEM    = UTC
MEAN_ELEMENT_THEORY = SGP/SGP4

EPOCH          = 2026-01-24T04:44:31.563456
MEAN_MOTION    = 15.20737610
ECCENTRICITY   = .00146139
INCLINATION    = 97.4150
RA_OF_ASC_NODE = 101.2312
ARG_OF_PERICENTER = 141.7279
MEAN_ANOMALY   = 218.4996

EPHEMERIS_TYPE = 0
CLASSIFICATION_TYPE = U
NORAD_CAT_ID   = 67280
ELEMENT_SET_NO = 999
REV_AT_EPOCH   = 405
BSTAR          = .45072298E-3
MEAN_MOTION_DOT = .9883E-4
MEAN_MOTION_DDOT = 0

CCSDS_OMM_VERS = 2.0
CREATION_DATE  = 
ORIGINATOR     = 

OBJECT_NAME    = 2025-313AK
OBJECT_ID      = 2025-313AK
CENTER_NAME    = EARTH
REF_FRAME      = TEME
TIME_SYSTEM    = UTC
MEAN_ELEMENT_THEORY = SGP/SGP4

EPOCH          = 2026-01-24T06:16:58.642176
MEAN_MOTION    = 15.20831379
ECCENTRICITY   = .0013342
INCLINATION    = 97.4034
RA_OF_ASC_NODE = 101.2680
ARG_OF_PERICENTER = 140.5016
MEAN_ANOMALY   = 219.7195

EPHEMERIS_TYPE = 0
CLASSIFICATION_TYPE = U
NORAD_CAT_ID   = 67281
ELEMENT_SET_NO = 999
REV_AT_EPOCH   = 406
BSTAR          = .44388052E-3
MEAN_MOTION_DOT = .9754E-4
MEAN_MOTION_DDOT = 0

