SITRO-TD-3              
1 67270U 25313Y   26024.27116006  .00017505  00000+0  80129-3 0  9993
2 67270  97.4097 101.2800 0016211 145.5109 214.7182 15.20449637  4064
2025-313Z               
1 67271U 25313Z   26024.27320531  .00008609  00000+0  39953-3 0  9998
2 67271  97.4092 101.2672 0016370 141.7541 218.4859 15.20153478  4068
2025-313AA              
1 67272U 25313AA  26024.20256983  .00019256  00000+0  87542-3 0  9998
2 67272  97.4096 101.2077 0015917 146.0997 214.1260 15.20670968  4057
2025-313AB              
1 67273U 25313AB  26024.27326872  .00006236  00000+0  29096-3 0  9995
2 67273  97.4110 101.2724 0015347 149.8402 210.3720 15.20099304  4062
2025-313AC              
1 67274U 25313AC  26024.27089020  .00012742  00000+0  58598-3 0  9995
2 67274  97.4086 101.2757 0016031 144.9270 215.3024 15.20364527  4065
2025-313AD              
1 67275U 25313AD  26024.26987234  .00013200  00000+0  60585-3 0  9998
2 67275  97.4060 101.2686 0015201 147.5664 212.6509 15.20435887  4069
2025-313AE              
1 67276U 25313AE  26024.20404050  .00012822  00000+0  58877-3 0  9993
2 67276  97.4065 101.2049 0015183 147.9524 212.2638 15.20428970  4059
2025-313AF              
1 67277U 25313AF  26024.27032276  .00012188  00000+0  56066-3 0  9991
2 67277  97.4067 101.2701 0015177 147.6496 212.5673 15.20379662  4061
2025-313AG              
1 67278U 25313AG  26024.27000381  .00011297  00000+0  51918-3 0  9995
2 67278  97.4071 101.2713 0015015 147.8992 212.3161 15.20433860  4076
GALAPAGOS-UTE-SWSU      
1 67279U 25313AH  26024.26892075  .00013503  00000+0  61842-3 0  9993
2 67279  97.4080 101.2765 0015665 144.5754 215.6525 15.20500036  4064
2025-313AJ              
1 67280U 25313AJ  26024.19758754  .00009883  00000+0  45072-3 0  9995
2 67280  97.4150 101.2312 0014613 141.7279 218.4996 15.20737610  4057
2025-313AK              
1 67281U 25313AK  26024.26178984  .00009754  00000+0  44388-3 0  9991
2 67281  97.4034 101.2680 0013342 140.5016 219.7195 15.20831379  4064
